[{"OBJECT_NAME":"TAURUS-1 (JINNIUZUO 1)","OBJECT_ID":"2019-059C","EPOCH":"2026-03-09T23:11:28.459968","MEAN_MOTION":14.70821687,"ECCENTRICITY":0.00084298,"INCLINATION":98.6309,"RA_OF_ASC_NODE":227.7793,"ARG_OF_PERICENTER":257.208,"MEAN_ANOMALY":102.8183,"EPHEMERIS_TYPE":0,"CLASSIFICATION_TYPE":"U","NORAD_CAT_ID":44530,"ELEMENT_SET_NO":999,"REV_AT_EPOCH":34405,"BSTAR":0.0015963092,"MEAN_MOTION_DOT":9.715e-5,"MEAN_MOTION_DDOT":0},{"OBJECT_NAME":"COSMOS 2251 DEB","OBJECT_ID":"1993-036BS","EPOCH":"2026-03-09T10:30:46.420128","MEAN_MOTION":14.71514486,"ECCENTRICITY":0.00796519,"INCLINATION":73.9827,"RA_OF_ASC_NODE":218.9735,"ARG_OF_PERICENTER":166.5003,"MEAN_ANOMALY":254.2029,"EPHEMERIS_TYPE":0,"CLASSIFICATION_TYPE":"U","NORAD_CAT_ID":33825,"ELEMENT_SET_NO":999,"REV_AT_EPOCH":90154,"BSTAR":0.0019950965,"MEAN_MOTION_DOT":0.00013008,"MEAN_MOTION_DDOT":0}]
